STARLINK-1986_new
1 17582C 21009AL  21326.13315705 -.00010718  00000-0 -71814-3 0  3264
2 17582  53.0544 223.1513 0001956  67.8162  29.5302 15.06407871    18
STARLINK-1986_old
1 27582C 21009AL  21325.14841971  .00009425  00000-0  63139-3 0  3254
2 27582  53.0546 227.5718 0001943  68.3297  85.7694 15.06394336    15
